NORAD_CAT_ID,OBJECT_NAME,OBJECT_TYPE,EPOCH,MEAN_MOTION,ECCENTRICITY,INCLINATION,RA_OF_ASC_NODE,ARG_OF_PERICENTER,MEAN_ANOMALY,BSTAR,MEAN_MOTION_DOT,MEAN_MOTION_DDOT,TLE_LINE0,TLE_LINE1,TLE_LINE2,SEMIMAJOR_AXIS,PERIOD,APOGEE,PERIGEE,DECAYED
50156.0,STARLINK-3317,PAYLOAD,2022-05-15 22:00:00,15.08832283,0.0002202,53.219,26.0029,41.6588,257.3745,-0.00078517,-0.0001276,0.0,0 STARLINK-3317,1 50156U 21125A   22135.91667824 -.00012760  00000-0 -78517-3 0  9993,2 50156  53.2190  26.0029 0002202  41.6588 257.3745 15.08832283  1303,6917.904,95.438,541.2919999999998,538.246,0.0
50156.0,STARLINK-3317,PAYLOAD,2022-05-16 14:00:01,15.08827735,0.0002044,53.2184,23.009,44.9056,277.2898,0.0015442,0.00024365,0.0,0 STARLINK-3317,1 50156U 21125A   22136.58334491  .00024365  00000-0  15442-2 0  9997,2 50156  53.2184  23.0090 0002044  44.9056 277.2898 15.08827735 25808,6917.918000000002,95.438,541.197,538.369,0.0
50156.0,STARLINK-3317,PAYLOAD,2022-05-16 22:00:00,15.08836331,0.000216,53.2184,21.5143,41.7118,292.0796,-0.0002875,-4.861e-05,0.0,0 STARLINK-3317,1 50156U 21125A   22136.91667824 -.00004861  00000-0 -28750-3 0  9991,2 50156  53.2184  21.5143 0002160  41.7118 292.0796 15.08836331  1306,6917.892,95.438,541.251,538.262,0.0
50156.0,STARLINK-3317,PAYLOAD,2022-05-17 14:00:01,15.08814283,0.0001926,53.2178,18.5199,42.3522,314.7006,0.0032094,0.00051125,0.0,0 STARLINK-3317,1 50156U 21125A   22137.58335648  .00051125  00000-0  32094-2 0  9999,2 50156  53.2178  18.5199 0001926  42.3522 314.7006 15.08814283 25956,6917.959,95.439,541.156,538.492,0.0
50156.0,STARLINK-3317,PAYLOAD,2022-05-17 22:00:01,15.08844737,0.0002071,53.2178,17.0252,38.7127,329.932,-0.0016862,-0.00027028,0.0,0 STARLINK-3317,1 50156U 21125A   22137.91668981 -.00027028  00000-0 -16862-2 0  9997,2 50156  53.2178  17.0252 0002071  38.7127 329.9320 15.08844737  1309,6917.866,95.437,541.164,538.298,0.0
50156.0,STARLINK-3317,PAYLOAD,2022-05-18 06:00:00,15.08857085,0.0002054,53.2174,15.5286,34.802,345.3669,-0.00090494,-0.00014669,0.0,0 STARLINK-3317,1 50156U 21125A   22138.25001157 -.00014669  00000-0 -90494-3 0  9992,2 50156  53.2174  15.5286 0002054  34.8020 345.3669 15.08857085 26063,6917.828,95.436,541.114,538.2719999999998,0.0
50156.0,STARLINK-3317,PAYLOAD,2022-05-18 14:00:01,15.088263199999998,0.0001853,53.2175,14.0307,38.8835,352.9035,0.0024525,0.00038945,0.0,0 STARLINK-3317,1 50156U 21125A   22138.58334491  .00038945  00000-0  24525-2 0  9990,2 50156  53.2175  14.0307 0001853  38.8835 352.9035 15.08826320  1305,6917.922,95.438,541.069,538.505,0.0
50156.0,STARLINK-3317,PAYLOAD,2022-05-18 22:00:00,15.08853092,0.0002037,53.2176,12.536,34.6963,8.682,-0.0027984,-0.00044567,0.0,0 STARLINK-3317,1 50156U 21125A   22138.91667824 -.00044567  00000-0 -27984-2 0  9997,2 50156  53.2176  12.5360 0002037  34.6963   8.6820 15.08853092  1302,6917.84,95.437,541.115,538.2959999999998,0.0
50156.0,STARLINK-3317,PAYLOAD,2022-05-19 14:00:01,15.08806749,0.0001931,53.2178,9.5412,38.7091,27.8996,0.003354,0.00053448,0.0,0 STARLINK-3317,1 50156U 21125A   22139.58335648  .00053448  00000-0  33540-2 0  9998,2 50156  53.2178   9.5412 0001931  38.7091  27.8996 15.08806749  1301,6917.982,95.44,541.183,538.511,0.0
50156.0,STARLINK-3317,PAYLOAD,2022-05-19 22:00:00,15.08841448,0.0002114,53.2179,8.0467,35.1169,43.0095,-0.0020925,-0.00033438,0.0,0 STARLINK-3317,1 50156U 21125A   22139.91667824 -.00033438  00000-0 -20925-2 0  9991,2 50156  53.2179   8.0467 0002114  35.1169  43.0095 15.08841448 26310,6917.876,95.437,541.203,538.279,0.0
50156.0,STARLINK-3317,PAYLOAD,2022-05-20 14:00:01,15.08839997,0.0001992,53.2184,5.052,38.9567,62.3482,0.00016501,2.339e-05,0.0,0 STARLINK-3317,1 50156U 21125A   22140.58334491  .00002339  00000-0  16501-3 0  9997,2 50156  53.2184   5.0520 0001992  38.9567  62.3482 15.08839997 26410,6917.88,95.438,541.123,538.367,0.0
50156.0,STARLINK-3317,PAYLOAD,2022-05-20 22:00:00,15.08846841,0.0002201,53.2185,3.5575,36.319,76.586,-0.001536,-0.00024656,0.0,0 STARLINK-3317,1 50156U 21125A   22140.91667824 -.00024656  00000-0 -15360-2 0  9992,2 50156  53.2185   3.5575 0002201  36.3190  76.5860 15.08846841  1306,6917.859,95.437,541.247,538.202,0.0
50156.0,STARLINK-3317,PAYLOAD,2022-05-21 06:00:00,15.088455800000002,0.0002095,53.2185,2.0605,33.5239,90.9767,-0.0017575,-0.00028155,0.0,0 STARLINK-3317,1 50156U 21125A   22141.25001157 -.00028155  00000-0 -17575-2 0  9999,2 50156  53.2185   2.0605 0002095  33.5239  90.9767 15.08845580  1303,6917.863,95.437,541.178,538.279,0.0
50156.0,STARLINK-3317,PAYLOAD,2022-05-21 14:00:01,15.08819488,0.0001912,53.2189,0.5629,36.3771,99.7841,0.0017989999999999,0.00028443,0.0,0 STARLINK-3317,1 50156U 21125A   22141.58335648  .00028443  00000-0  17990-2 0  9999,2 50156  53.2189   0.5629 0001912  36.3771  99.7841 15.08819488 26568,6917.943,95.439,541.131,538.485,0.0
50156.0,STARLINK-3317,PAYLOAD,2022-05-21 22:00:00,15.08836258,0.0002137,53.2189,359.0685,32.6919,114.9933,0.0007292,0.00011335,0.0,0 STARLINK-3317,1 50156U 21125A   22141.91667824  .00011335  00000-0  72920-3 0  9997,2 50156  53.2189 359.0685 0002137  32.6919 114.9933 15.08836258  1306,6917.892,95.438,541.235,538.278,0.0
50156.0,STARLINK-3317,PAYLOAD,2022-05-22 14:00:01,15.08731634,0.0002152,53.2177,356.0749,33.3767,137.4884,0.0099283,0.00160875,0.0,0 STARLINK-3317,1 50156U 21125A   22142.58334491  .00160875  00000-0  99283-2 0  9996,2 50156  53.2177 356.0749 0002152  33.3767 137.4884 15.08731634 26716,6918.212,95.444,541.565,538.5880000000002,0.0
50156.0,STARLINK-3317,PAYLOAD,2022-05-22 22:00:01,15.08819613,0.0002271,53.219,354.5797,37.8235,144.7151,0.0017437999999999,0.00027558,0.0,0 STARLINK-3317,1 50156U 21125A   22142.91668981  .00027558  00000-0  17438-2 0  9999,2 50156  53.2190 354.5797 0002271  37.8235 144.7151 15.08819613  1308,6917.943,95.439,541.379,538.237,0.0
50156.0,STARLINK-3317,PAYLOAD,2022-05-23 06:00:00,15.08872493,0.0002106,53.2186,353.0825,36.793,157.2564,-0.0054034,-0.00085344,0.0,0 STARLINK-3317,1 50156U 21125A   22143.25001157 -.00085344  00000-0 -54034-2 0  9995,2 50156  53.2186 353.0825 0002106  36.7930 157.2564 15.08872493 26811,6917.781,95.435,541.1030000000002,538.189,0.0
50156.0,STARLINK-3317,PAYLOAD,2022-05-23 14:00:01,15.08839048,0.0002263,53.2177,351.5863,38.967,166.6159,-0.00017508,-3.074e-05,0.0,0 STARLINK-3317,1 50156U 21125A   22143.58334491 -.00003074  00000-0 -17508-3 0  9997,2 50156  53.2177 351.5863 0002263  38.9670 166.6159 15.08839048  1305,6917.8830000000025,95.438,541.314,538.183,0.0
50156.0,STARLINK-3317,PAYLOAD,2022-05-23 22:00:01,15.08827128,0.0002199,53.2186,350.0911,36.3917,180.9255,0.0017919,0.00028336,0.0,0 STARLINK-3317,1 50156U 21125A   22143.91668981  .00028336  00000-0  17919-2 0  9999,2 50156  53.2186 350.0911 0002199  36.3917 180.9255 15.08827128 26913,6917.92,95.438,541.306,538.263,0.0
50156.0,STARLINK-3317,PAYLOAD,2022-05-24 14:00:01,15.08842507,0.0001968,53.2183,347.0969,40.8922,199.5409,-0.0013835,-0.00022241,0.0,0 STARLINK-3317,1 50156U 21125A   22144.58334491 -.00022241  00000-0 -13835-2 0  9993,2 50156  53.2183 347.0969 0001968  40.8922 199.5409 15.08842507 27015,6917.873000000001,95.437,541.099,538.376,0.0
50156.0,STARLINK-3317,PAYLOAD,2022-05-24 22:00:00,15.08801198,0.0002235,53.2181,345.6024,37.3969,214.6334,0.0021662,0.00034319,0.0,0 STARLINK-3317,1 50156U 21125A   22144.91667824  .00034319  00000-0  21662-2 0  9993,2 50156  53.2181 345.6024 0002235  37.3969 214.6334 15.08801198  1300,6917.999,95.44,541.41,538.318,0.0
50156.0,STARLINK-3317,PAYLOAD,2022-05-25 14:00:01,15.08816306,0.0002002,53.2177,342.6081,40.3447,234.8236,0.00095949,0.00015005,0.0,0 STARLINK-3317,1 50156U 21125A   22145.58334491  .00015005  00000-0  95949-3 0  9999,2 50156  53.2177 342.6081 0002002  40.3447 234.8236 15.08816306 27166,6917.953,95.439,541.203,538.433,0.0
50156.0,STARLINK-3317,PAYLOAD,2022-05-25 20:44:04,15.08828015,0.000219,53.2191,341.3478,39.0343,321.0807,1.2947e-05,-8.2e-07,0.0,0 STARLINK-3317,1 50156U 21125A   22145.86393907 -.00000082  00000-0  12947-4 0  9995,2 50156  53.2191 341.3478 0002190  39.0343 321.0807 15.08828015 27721,6917.917,95.438,541.297,538.2669999999998,0.0
50156.0,STARLINK-3317,PAYLOAD,2022-05-26 06:16:23,15.0883405,0.0002177,53.219,339.5636,39.4275,320.6875,0.00010086,1.317e-05,0.0,0 STARLINK-3317,1 50156U 21125A   22146.26137938  .00001317  00000-0  10086-3 0  9992,2 50156  53.2190 339.5636 0002177  39.4275 320.6875 15.08834050 27780,6917.899,95.438,541.27,538.258,0.0
50156.0,STARLINK-3317,PAYLOAD,2022-05-26 20:34:51,15.08846893,0.0002087,53.2185,336.8877,42.8134,317.302,0.00028746,4.291e-05,0.0,0 STARLINK-3317,1 50156U 21125A   22146.85753684  .00004291  00000-0  28746-3 0  9995,2 50156  53.2185 336.8877 0002087  42.8134 317.3020 15.08846893 27876,6917.859,95.437,541.168,538.281,0.0
50156.0,STARLINK-3317,PAYLOAD,2022-05-26 22:00:00,15.08810909,0.0002283,53.2176,336.6244,35.2116,286.3118,0.002613,0.00041511,0.0,0 STARLINK-3317,1 50156U 21125A   22146.91667824  .00041511  00000-0  26130-2 0  9992,2 50156  53.2176 336.6244 0002283  35.2116 286.3118 15.08810909 27362,6917.969,95.439,541.414,538.255,0.0
50156.0,STARLINK-3317,PAYLOAD,2022-05-27 14:00:01,15.08835097,0.0002149,53.2174,333.6293,37.0933,307.6043,-0.0003557,-5.944e-05,0.0,0 STARLINK-3317,1 50156U 21125A   22147.58334491 -.00005944  00000-0 -35570-3 0  9998,2 50156  53.2174 333.6293 0002149  37.0933 307.6043 15.08835097  1304,6917.895,95.438,541.247,538.274,0.0
50156.0,STARLINK-3317,PAYLOAD,2022-05-27 16:00:00,15.0887205,0.0002178,53.2177,333.2564,37.0774,40.5137,-0.0022841,-0.00036489,0.0,0 STARLINK-3317,1 50156U 21125A   22147.66667824 -.00036489  00000-0 -22841-2 0  9990,2 50156  53.2177 333.2564 0002178  37.0774  40.5137 15.08872050 27483,6917.781999999997,95.436,541.154,538.141,0.0
